CS2                     
1 49262U 21088C   26068.73485932  .00018033  00000+0  56178-3 0  9999
2 49262  97.3928 134.2907 0011637  82.3491 277.9072 15.33255930245263
STARLINK-36033          
1 66893U 25283R   26068.26396658  .00018656  00000+0  64068-3 0  9991
2 66893  53.1627  26.5248 0001106 106.8453 253.2670 15.30186705 15771
